OBJECT_NAME,OBJECT_ID,EPOCH,MEAN_MOTION,ECCENTRICITY,INCLINATION,RA_OF_ASC_NODE,ARG_OF_PERICENTER,MEAN_ANOMALY,EPHEMERIS_TYPE,CLASSIFICATION_TYPE,NORAD_CAT_ID,ELEMENT_SET_NO,REV_AT_EPOCH,BSTAR,MEAN_MOTION_DOT,MEAN_MOTION_DDOT
STARLINK-5862,2023-037G,2026-03-09T13:04:38.464032,14.98325433,.0002694,69.9974,285.0172,263.5503,96.5349,0,U,55920,999,16395,.76541E-4,.82E-5,0
ICEYE-X43,2024-149BZ,2026-03-09T04:59:59.268768,14.99329859,.0002464,97.6824,146.5287,60.3849,299.7620,0,U,60539,999,8513,.36685E-3,.4425E-4,0
